SL-16 R/B               
1 25400U 98043G   25343.29015214  .00000176  00000+0  92552-4 0  9996
2 25400  98.8119 291.0890 0008820 277.9838  82.0341 14.26024359426107
SL-16 R/B               
1 25407U 98045B   25343.30364824 -.00000116  00000+0 -34452-4 0  9992
2 25407  71.0123  11.6533 0007102 183.1329 176.9751 14.16175994414305
ISS (ZARYA)             
1 25544U 98067A   25343.18736383  .00013707  00000+0  25261-3 0  9992
2 25544  51.6308 160.0685 0003366 223.6321 136.4401 15.49438460542305
CZ-4B R/B               
1 25732U 99025C   25343.14169012  .00000111  00000+0  74698-4 0  9995
2 25732  98.6772  24.5021 0036186 244.6122 128.1755 14.18242116375339
OKEAN-O                 
1 25860U 99039A   25343.13909267  .00001190  00000+0  16363-3 0  9997
2 25860  97.9606  38.8718 0000790  90.1743 269.9559 14.80151028420994
SL-16 R/B               
1 25861U 99039B   25343.13763401  .00000997  00000+0  13359-3 0  9992
2 25861  98.0129  37.2885 0014642 186.4384 173.6643 14.81577920423459
DELTA 2 R/B             
1 25876U 99041E   25343.10227775  .00001223  00000+0  23672-3 0  9999
2 25876  51.7619 302.9663 0504750  81.0451 284.7245 14.11385999350233
HELIOS 1B               
1 25977U 99064A   25343.30502122  .00003330  00000+0  37588-3 0  9992
2 25977  98.1752 237.8688 0001900  47.5872 312.5503 14.87260402671826
TERRA                   
1 25994U 99068A   25343.31116993  .00000954  00000+0  20415-3 0  9993
2 25994  97.9753  35.1215 0003576 101.1751 328.5352 14.60896422381883
SL-16 R/B               
1 26070U 00006B   25343.29561152  .00000061  00000+0  55527-4 0  9993
2 26070  71.0032 287.8987 0018339 313.3879  46.5716 14.15810664335766
TITAN 4B R/B            
1 26474U 00047B   25343.29577242  .00005437  00000+0  34770-3 0  9991
2 26474  67.9903 294.5270 0039194 148.7431 211.6061 15.08740452379273
ENVISAT                 
1 27386U 02009A   25343.14168772  .00000232  00000+0  89014-4 0  9992
2 27386  98.3594 293.9735 0001144  81.9813 292.3991 14.38997008246156
