CCSDS_OMM_VERS = 2.0
CREATION_DATE  = 
ORIGINATOR     = 

OBJECT_NAME    = SL-16 R/B
OBJECT_ID      = 1998-043G
CENTER_NAME    = EARTH
REF_FRAME      = TEME
TIME_SYSTEM    = UTC
MEAN_ELEMENT_THEORY = SGP/SGP4

EPOCH          = 2025-12-09T06:57:49.144896
MEAN_MOTION    = 14.26024359
ECCENTRICITY   = .00088201
INCLINATION    = 98.8119
RA_OF_ASC_NODE = 291.0890
ARG_OF_PERICENTER = 277.9838
MEAN_ANOMALY   = 82.0341

EPHEMERIS_TYPE = 0
CLASSIFICATION_TYPE = U
NORAD_CAT_ID   = 25400
ELEMENT_SET_NO = 999
REV_AT_EPOCH   = 42610
BSTAR          = .92551811E-4
MEAN_MOTION_DOT = .176E-5
MEAN_MOTION_DDOT = 0

CCSDS_OMM_VERS = 2.0
CREATION_DATE  = 
ORIGINATOR     = 

OBJECT_NAME    = SL-16 R/B
OBJECT_ID      = 1998-045B
CENTER_NAME    = EARTH
REF_FRAME      = TEME
TIME_SYSTEM    = UTC
MEAN_ELEMENT_THEORY = SGP/SGP4

EPOCH          = 2025-12-09T07:17:15.207936
MEAN_MOTION    = 14.16175994
ECCENTRICITY   = .00071021
INCLINATION    = 71.0123
RA_OF_ASC_NODE = 11.6533
ARG_OF_PERICENTER = 183.1329
MEAN_ANOMALY   = 176.9751

EPHEMERIS_TYPE = 0
CLASSIFICATION_TYPE = U
NORAD_CAT_ID   = 25407
ELEMENT_SET_NO = 999
REV_AT_EPOCH   = 41430
BSTAR          = -.34452013E-4
MEAN_MOTION_DOT = -.116E-5
MEAN_MOTION_DDOT = 0

CCSDS_OMM_VERS = 2.0
CREATION_DATE  = 
ORIGINATOR     = 

OBJECT_NAME    = ISS (ZARYA)
OBJECT_ID      = 1998-067A
CENTER_NAME    = EARTH
REF_FRAME      = TEME
TIME_SYSTEM    = UTC
MEAN_ELEMENT_THEORY = SGP/SGP4

EPOCH          = 2025-12-09T04:29:48.234912
MEAN_MOTION    = 15.49438460
ECCENTRICITY   = .00033664
INCLINATION    = 51.6308
RA_OF_ASC_NODE = 160.0685
ARG_OF_PERICENTER = 223.6321
MEAN_ANOMALY   = 136.4401

EPHEMERIS_TYPE = 0
CLASSIFICATION_TYPE = U
NORAD_CAT_ID   = 25544
ELEMENT_SET_NO = 999
REV_AT_EPOCH   = 54230
BSTAR          = .2526091E-3
MEAN_MOTION_DOT = .13707E-3
MEAN_MOTION_DDOT = 0

CCSDS_OMM_VERS = 2.0
CREATION_DATE  = 
ORIGINATOR     = 

OBJECT_NAME    = CZ-4B R/B
OBJECT_ID      = 1999-025C
CENTER_NAME    = EARTH
REF_FRAME      = TEME
TIME_SYSTEM    = UTC
MEAN_ELEMENT_THEORY = SGP/SGP4

EPOCH          = 2025-12-09T03:24:02.026368
MEAN_MOTION    = 14.18242116
ECCENTRICITY   = .00361863
INCLINATION    = 98.6772
RA_OF_ASC_NODE = 24.5021
ARG_OF_PERICENTER = 244.6122
MEAN_ANOMALY   = 128.1755

EPHEMERIS_TYPE = 0
CLASSIFICATION_TYPE = U
NORAD_CAT_ID   = 25732
ELEMENT_SET_NO = 999
REV_AT_EPOCH   = 37533
BSTAR          = .74697523E-4
MEAN_MOTION_DOT = .111E-5
MEAN_MOTION_DDOT = 0

CCSDS_OMM_VERS = 2.0
CREATION_DATE  = 
ORIGINATOR     = 

OBJECT_NAME    = OKEAN-O
OBJECT_ID      = 1999-039A
CENTER_NAME    = EARTH
REF_FRAME      = TEME
TIME_SYSTEM    = UTC
MEAN_ELEMENT_THEORY = SGP/SGP4

EPOCH          = 2025-12-09T03:20:17.606688
MEAN_MOTION    = 14.80151028
ECCENTRICITY   = .00007906
INCLINATION    = 97.9606
RA_OF_ASC_NODE = 38.8718
ARG_OF_PERICENTER = 90.1743
MEAN_ANOMALY   = 269.9559

EPHEMERIS_TYPE = 0
CLASSIFICATION_TYPE = U
NORAD_CAT_ID   = 25860
ELEMENT_SET_NO = 999
REV_AT_EPOCH   = 42099
BSTAR          = .16362553E-3
MEAN_MOTION_DOT = .119E-4
MEAN_MOTION_DDOT = 0

CCSDS_OMM_VERS = 2.0
CREATION_DATE  = 
ORIGINATOR     = 

OBJECT_NAME    = SL-16 R/B
OBJECT_ID      = 1999-039B
CENTER_NAME    = EARTH
REF_FRAME      = TEME
TIME_SYSTEM    = UTC
MEAN_ELEMENT_THEORY = SGP/SGP4

EPOCH          = 2025-12-09T03:18:11.578464
MEAN_MOTION    = 14.81577920
ECCENTRICITY   = .00146425
INCLINATION    = 98.0129
RA_OF_ASC_NODE = 37.2885
ARG_OF_PERICENTER = 186.4384
MEAN_ANOMALY   = 173.6643

EPHEMERIS_TYPE = 0
CLASSIFICATION_TYPE = U
NORAD_CAT_ID   = 25861
ELEMENT_SET_NO = 999
REV_AT_EPOCH   = 42345
BSTAR          = .13358943E-3
MEAN_MOTION_DOT = .997E-5
MEAN_MOTION_DDOT = 0

CCSDS_OMM_VERS = 2.0
CREATION_DATE  = 
ORIGINATOR     = 

OBJECT_NAME    = DELTA 2 R/B
OBJECT_ID      = 1999-041E
CENTER_NAME    = EARTH
REF_FRAME      = TEME
TIME_SYSTEM    = UTC
MEAN_ELEMENT_THEORY = SGP/SGP4

EPOCH          = 2025-12-09T02:27:16.797600
MEAN_MOTION    = 14.11385999
ECCENTRICITY   = .05047509
INCLINATION    = 51.7619
RA_OF_ASC_NODE = 302.9663
ARG_OF_PERICENTER = 81.0451
MEAN_ANOMALY   = 284.7245

EPHEMERIS_TYPE = 0
CLASSIFICATION_TYPE = U
NORAD_CAT_ID   = 25876
ELEMENT_SET_NO = 999
REV_AT_EPOCH   = 35023
BSTAR          = .23671736E-3
MEAN_MOTION_DOT = .1223E-4
MEAN_MOTION_DDOT = 0

CCSDS_OMM_VERS = 2.0
CREATION_DATE  = 
ORIGINATOR     = 

OBJECT_NAME    = HELIOS 1B
OBJECT_ID      = 1999-064A
CENTER_NAME    = EARTH
REF_FRAME      = TEME
TIME_SYSTEM    = UTC
MEAN_ELEMENT_THEORY = SGP/SGP4

EPOCH          = 2025-12-09T07:19:13.833408
MEAN_MOTION    = 14.87260402
ECCENTRICITY   = .00019003
INCLINATION    = 98.1752
RA_OF_ASC_NODE = 237.8688
ARG_OF_PERICENTER = 47.5872
MEAN_ANOMALY   = 312.5503

EPHEMERIS_TYPE = 0
CLASSIFICATION_TYPE = U
NORAD_CAT_ID   = 25977
ELEMENT_SET_NO = 999
REV_AT_EPOCH   = 67182
BSTAR          = .37588069E-3
MEAN_MOTION_DOT = .333E-4
MEAN_MOTION_DDOT = 0

CCSDS_OMM_VERS = 2.0
CREATION_DATE  = 
ORIGINATOR     = 

OBJECT_NAME    = TERRA
OBJECT_ID      = 1999-068A
CENTER_NAME    = EARTH
REF_FRAME      = TEME
TIME_SYSTEM    = UTC
MEAN_ELEMENT_THEORY = SGP/SGP4

EPOCH          = 2025-12-09T07:28:05.081952
MEAN_MOTION    = 14.60896422
ECCENTRICITY   = .00035764
INCLINATION    = 97.9753
RA_OF_ASC_NODE = 35.1215
ARG_OF_PERICENTER = 101.1751
MEAN_ANOMALY   = 328.5352

EPHEMERIS_TYPE = 0
CLASSIFICATION_TYPE = U
NORAD_CAT_ID   = 25994
ELEMENT_SET_NO = 999
REV_AT_EPOCH   = 38188
BSTAR          = .20414616E-3
MEAN_MOTION_DOT = .954E-5
MEAN_MOTION_DDOT = 0

CCSDS_OMM_VERS = 2.0
CREATION_DATE  = 
ORIGINATOR     = 

OBJECT_NAME    = SL-16 R/B
OBJECT_ID      = 2000-006B
CENTER_NAME    = EARTH
REF_FRAME      = TEME
TIME_SYSTEM    = UTC
MEAN_ELEMENT_THEORY = SGP/SGP4

EPOCH          = 2025-12-09T07:05:40.835328
MEAN_MOTION    = 14.15810664
ECCENTRICITY   = .00183391
INCLINATION    = 71.0032
RA_OF_ASC_NODE = 287.8987
ARG_OF_PERICENTER = 313.3879
MEAN_ANOMALY   = 46.5716

EPHEMERIS_TYPE = 0
CLASSIFICATION_TYPE = U
NORAD_CAT_ID   = 26070
ELEMENT_SET_NO = 999
REV_AT_EPOCH   = 33576
BSTAR          = .55527343E-4
MEAN_MOTION_DOT = .61E-6
MEAN_MOTION_DDOT = 0

CCSDS_OMM_VERS = 2.0
CREATION_DATE  = 
ORIGINATOR     = 

OBJECT_NAME    = TITAN 4B R/B
OBJECT_ID      = 2000-047B
CENTER_NAME    = EARTH
REF_FRAME      = TEME
TIME_SYSTEM    = UTC
MEAN_ELEMENT_THEORY = SGP/SGP4

EPOCH          = 2025-12-09T07:05:54.737088
MEAN_MOTION    = 15.08740452
ECCENTRICITY   = .00391946
INCLINATION    = 67.9903
RA_OF_ASC_NODE = 294.5270
ARG_OF_PERICENTER = 148.7431
MEAN_ANOMALY   = 211.6061

EPHEMERIS_TYPE = 0
CLASSIFICATION_TYPE = U
NORAD_CAT_ID   = 26474
ELEMENT_SET_NO = 999
REV_AT_EPOCH   = 37927
BSTAR          = .3476987E-3
MEAN_MOTION_DOT = .5437E-4
MEAN_MOTION_DDOT = 0

CCSDS_OMM_VERS = 2.0
CREATION_DATE  = 
ORIGINATOR     = 

OBJECT_NAME    = ENVISAT
OBJECT_ID      = 2002-009A
CENTER_NAME    = EARTH
REF_FRAME      = TEME
TIME_SYSTEM    = UTC
MEAN_ELEMENT_THEORY = SGP/SGP4

EPOCH          = 2025-12-09T03:24:01.819008
MEAN_MOTION    = 14.38997008
ECCENTRICITY   = .0001144
INCLINATION    = 98.3594
RA_OF_ASC_NODE = 293.9735
ARG_OF_PERICENTER = 81.9813
MEAN_ANOMALY   = 292.3991

EPHEMERIS_TYPE = 0
CLASSIFICATION_TYPE = U
NORAD_CAT_ID   = 27386
ELEMENT_SET_NO = 999
REV_AT_EPOCH   = 24615
BSTAR          = .89013887E-4
MEAN_MOTION_DOT = .232E-5
MEAN_MOTION_DDOT = 0

